#aV2019  9  7  0  0  0.00000000     288 DD+AD WGS84 FIT  NGA
## 2069 518400.00000000   300.00000000 58733 0.0000000000000
+   31     1  2  3  5  6  7  8  9 10 11 12 13 14 15 16 17 18
+         19 20 21 22 23 24 25 26 27 28 29 30 31 32  0  0  0
+          0  0  0  0  0  0  0  0  0  0  0  0  0  0  0  0  0
+          0  0  0  0  0  0  0  0  0  0  0  0  0  0  0  0  0
+          0  0  0  0  0  0  0  0  0  0  0  0  0  0  0  0  0
++         2  2  2  2  2  2  2  2  2  2  2  2  2  2  2  2  2
++         2  2  2  2  2  2  2  2  2  2  2  2  2  2  0  0  0
++         0  0  0  0  0  0  0  0  0  0  0  0  0  0  0  0  0
++         0  0  0  0  0  0  0  0  0  0  0  0  0  0  0  0  0
++         0  0  0  0  0  0  0  0  0  0  0  0  0  0  0  0  0
%c cc cc ccc ccc cccc cccc cccc cccc ccccc ccccc ccccc ccccc
%c cc cc ccc ccc cccc cccc cccc cccc ccccc ccccc ccccc ccccc
%f  0.0000000  0.000000000  0.00000000000  0.000000000000000
%f  0.0000000  0.000000000  0.00000000000  0.000000000000000
%i    0    0    0    0      0      0      0      0         0
%i    0    0    0    0      0      0      0      0         0
/*      NGA, ST. LOUIS,MO.                                  
/*   EPHEMERIS COMPUTED FROM 2 DAYS OF DATA                 
/*   EPOCHA v5 SMOOTHER                                     
/*   G1762 IERS2010 SATAF SATAPC                            
*  2019  9  7  6 50  0.00000000
P  1   1122.585336 -15828.104742 -21445.483671   -120.778607                    
V  1  25393.216650  -8517.248664   7996.368992     -0.122645                    
P  2 -19623.786870  15707.136820   8972.747502   -299.712575                    
V  2 -10775.043650   1854.704624 -28930.162999     -0.082225                    
P  3  -9322.702720 -20528.127362 -14166.184660     -8.485841                    
V  3  15012.965302   9869.219366 -24184.506056     -0.037640                    
P  5 -10425.186458  11342.115618  21508.441361     -1.206875                    
V  5 -21736.267497 -17102.940855  -1308.077433     -0.002983                    
P  6 -25393.511063   5447.331780  -5592.865212    -49.411393                    
V  6   5902.481621  -4592.289911 -31021.383194     -0.122941                    
P  7 -15401.279650  -9476.694203  19885.848875   -101.179271                    
V  7  22785.631524  -9110.992862  13020.397989     -0.079540                    
P  8   4912.468777 -25955.392504   1275.114805     -5.589782                    
V  8   2413.639683   1982.443091  32050.540199     -0.014174                    
P  9  -9308.505056 -18237.744229  16867.560903    -25.109548                    
V  9   5215.295395 -20979.292831 -19759.557194     -0.093826                    
P 10  22667.605837   9255.284218 -10493.619883    -43.870580                    
V 10   8861.346245  10222.075747  27782.968449     -0.150251                    
P 11   2454.923657 -21159.606624 -16562.805831   -514.067647                    
V 11  15679.556833 -12852.935672  19067.186855      0.106660                    
P 12   4683.082146  20128.845380 -16988.506362    206.482541                    
V 12 -16096.408991 -13622.546297 -20683.273020     -0.037848                    
P 13 -12930.161958  21260.206122   9084.533993    -45.671391                    
V 13   1046.451455 -11908.772912  29060.071322      0.020257                    
P 14  15881.880436  -9207.005415 -18802.182872    -62.627899                    
V 14  -4514.533066  24260.545487 -15605.102004      0.019897                    
P 15  -1917.833697  26271.994039     63.794069   -288.737458                    
V 15  -4151.361179   -704.168697  31271.561320      0.026976                    
P 16  12107.690248  -8567.144300  21869.221431    -71.865292                    
V 16  19991.848875  19794.867649  -2866.884155     -0.034423                    
P 17 -14698.984920   -370.846238 -21699.686161    120.957486                    
V 17   6013.813818 -27854.784740  -3611.752583      0.069786                    
P 18   9847.626790 -17765.144368 -17564.226248     83.828330                    
V 18  20316.360181  -6874.983279  18998.840293      0.028802                    
P 19 -15986.510012   6536.858497 -20488.966793   -270.601461                    
V 19   5986.199459 -24567.626325 -12663.287128      0.051300                    
P 20  22739.601173  13896.599540   -692.496833    526.775562                    
V 20  -1288.657088   3426.282123  30966.693419      0.001530                    
P 21  18907.382629   6013.557132  18363.024480   -123.084767                    
V 21 -19316.379391  10339.432367  17441.621929      0.065124                    
P 22  -2643.013959 -18764.806344 -18424.784029   -752.287731                    
V 22  20624.614778  12289.958055 -15199.229629     -0.039577                    
P 23  -2042.375942 -25171.351890   7894.495140   -168.199212                    
V 23   4772.676740  -9096.281593 -29417.248166      0.020099                    
P 24  -3191.975959  17332.587842 -19936.413695     -1.833992                    
V 24 -23649.357926   8664.141914  11752.976458     -0.004993                    
P 25  16920.237589  19731.899473  -6288.735464    -11.127004                    
V 25  -7291.066070  -3198.534879 -30442.562604     -0.016559                    
P 26  19383.010855  -1316.601792  18175.220372     33.209431                    
V 26  17172.962966  15500.520885 -16992.457917      0.088561                    
P 27  12077.898954 -19575.137401  12897.857697    -47.763946                    
V 27   -718.111140  16759.273530  26170.644227     -0.120100                    
P 28 -21271.608673 -11254.793460 -10514.767690    762.870868                    
V 28  -8594.260753 -11592.177369  28286.182759     -0.010079                    
P 29   5732.098749  20639.619757  15653.321442    104.476923                    
V 29  -6030.723944  19018.006929 -22837.026500     -0.102602                    
P 30 -23394.949520  -2079.902171  12623.573865    -35.549737                    
V 30  14339.523281  -7473.872060  25214.132600     -0.079438                    
P 31  25851.710362  -6130.364455  -3560.129301     12.077166                    
V 31  -3429.799412   3760.573084 -30999.000498     -0.025878                    
P 32  15376.430789    186.369040 -21584.953868     47.886471                    
V 32  -4107.929584  27274.883826  -2804.821516      0.138756                    
EOF
